start=new Date('2022-08-05T00:00:00.000Z').valueOf();
sats=[{"NORAD_CAT_ID":"46714","CENTER_NAME":"EARTH","EPHEMERIS_TYPE":"0","APOAPSIS":"548.192","DECAY_DATE":null,"MEAN_MOTION_DOT":"0.00000477","MEAN_MOTION_DDOT":"0.0000000000000","ECCENTRICITY":"0.00014090","LAUNCH_DATE":"2020-10-18","SITE":"AFETR","MEAN_ELEMENT_THEORY":"SGP4","TLE_LINE2":"2 46714  53.0553  15.1443 0001409  84.5579 275.5571 15.06399206 99253","OBJECT_NAME":"STARLINK-1816","PERIAPSIS":"546.240","COUNTRY_CODE":"US","REV_AT_EPOCH":"9925","RA_OF_ASC_NODE":"15.1443","ELEMENT_SET_NO":"999","FILE":"3529274","TLE_LINE1":"1 46714U 20073AW  22216.85860247  .00000477  00000-0  50920-4 0  9995","PERIOD":"95.592","CLASSIFICATION_TYPE":"U","INCLINATION":"53.0553","OBJECT_TYPE":"PAYLOAD","BSTAR":"0.00005092000000","REF_FRAME":"TEME","OBJECT_ID":"2020-073AW","RCS_SIZE":"LARGE","GP_ID":"209588889","MEAN_ANOMALY":"275.5571","EPOCH":"2022-08-04T20:36:23.253408","SEMIMAJOR_AXIS":"6925.351","TIME_SYSTEM":"UTC","MEAN_MOTION":"15.06399206","ARG_OF_PERICENTER":"84.5579"},{"MEAN_MOTION":"15.06401851","ARG_OF_PERICENTER":"89.2750","MEAN_ANOMALY":"270.8408","EPOCH":"2022-08-04T20:31:04.837440","TIME_SYSTEM":"UTC","SEMIMAJOR_AXIS":"6925.343","GP_ID":"209589141","RCS_SIZE":"LARGE","INCLINATION":"53.0549","CLASSIFICATION_TYPE":"U","BSTAR":"0.00006518200000","OBJECT_TYPE":"PAYLOAD","OBJECT_ID":"2020-073AX","REF_FRAME":"TEME","ELEMENT_SET_NO":"999","TLE_LINE1":"1 46715U 20073AX  22216.85491710  .00000690  00000-0  65182-4 0  9994","FILE":"3529274","PERIOD":"95.592","OBJECT_NAME":"STARLINK-1817","COUNTRY_CODE":"US","REV_AT_EPOCH":"9925","PERIAPSIS":"546.190","RA_OF_ASC_NODE":"15.1768","MEAN_MOTION_DDOT":"0.0000000000000","SITE":"AFETR","ECCENTRICITY":"0.00014700","LAUNCH_DATE":"2020-10-18","TLE_LINE2":"2 46715  53.0549  15.1768 0001470  89.2750 270.8408 15.06401851 99257","MEAN_ELEMENT_THEORY":"SGP4","NORAD_CAT_ID":"46715","EPHEMERIS_TYPE":"0","CENTER_NAME":"EARTH","MEAN_MOTION_DOT":"0.00000690","APOAPSIS":"548.226","DECAY_DATE":null},{"BSTAR":"0.00005774800000","OBJECT_TYPE":"PAYLOAD","INCLINATION":"53.0543","CLASSIFICATION_TYPE":"U","OBJECT_ID":"2020-073AY","REF_FRAME":"TEME","GP_ID":"209589890","RCS_SIZE":"LARGE","SEMIMAJOR_AXIS":"6925.373","TIME_SYSTEM":"UTC","EPOCH":"2022-08-04T20:52:59.009952","MEAN_ANOMALY":"271.6688","ARG_OF_PERICENTER":"88.4431","MEAN_MOTION":"15.06392112","NORAD_CAT_ID":"46716","MEAN_MOTION_DOT":"0.00000579","DECAY_DATE":null,"APOAPSIS":"548.024","EPHEMERIS_TYPE":"0","CENTER_NAME":"EARTH","MEAN_MOTION_DDOT":"0.0000000000000","TLE_LINE2":"2 46716  53.0543  30.0866 0001135  88.4431 271.6688 15.06392112 99047","MEAN_ELEMENT_THEORY":"SGP4","SITE":"AFETR","LAUNCH_DATE":"2020-10-18","ECCENTRICITY":"0.00011350","REV_AT_EPOCH":"9904","COUNTRY_CODE":"US","PERIAPSIS":"546.452","OBJECT_NAME":"STARLINK-1818","RA_OF_ASC_NODE":"30.0866","ELEMENT_SET_NO":"999","PERIOD":"95.593","TLE_LINE1":"1 46716U 20073AY  22216.87012743  .00000579  00000-0  57748-4 0  9997","FILE":"3529274"},{"MEAN_ELEMENT_THEORY":"SGP4","TLE_LINE2":"2 46717  53.0586  15.3871 0001699 116.0961 244.0203 15.06336812 99725","LAUNCH_DATE":"2020-10-18","ECCENTRICITY":"0.00016990","SITE":"AFETR","MEAN_MOTION_DDOT":"0.0000000000000","APOAPSIS":"548.584","DECAY_DATE":null,"MEAN_MOTION_DOT":"-0.00007512","CENTER_NAME":"EARTH","EPHEMERIS_TYPE":"0","NORAD_CAT_ID":"46717","PERIOD":"95.596","FILE":"3529194","TLE_LINE1":"1 46717U 20073AZ  22216.80705071 -.00007512  00000-0 -48680-3 0  9994","ELEMENT_SET_NO":"999","RA_OF_ASC_NODE":"15.3871","PERIAPSIS":"546.231","COUNTRY_CODE":"US","REV_AT_EPOCH":"9972","OBJECT_NAME":"STARLINK-1820","RCS_SIZE":"LARGE","GP_ID":"209566399","REF_FRAME":"TEME","OBJECT_ID":"2020-073AZ","OBJECT_TYPE":"PAYLOAD","BSTAR":"-0.00048680000000","INCLINATION":"53.0586","CLASSIFICATION_TYPE":"U","ARG_OF_PERICENTER":"116.0961","MEAN_MOTION":"15.06336812","TIME_SYSTEM":"UTC","SEMIMAJOR_AXIS":"6925.542","EPOCH":"2022-08-04T19:22:09.181344","MEAN_ANOMALY":"244.0203"},{"MEAN_ELEMENT_THEORY":"SGP4","TLE_LINE2":"2 46718  53.0576  30.1817 0001457  94.7826 265.3329 15.06392137 99046","LAUNCH_DATE":"2020-10-18","ECCENTRICITY":"0.00014570","SITE":"AFETR","MEAN_MOTION_DDOT":"0.0000000000000","APOAPSIS":"548.247","DECAY_DATE":null,"MEAN_MOTION_DOT":"0.00000162","CENTER_NAME":"EARTH","EPHEMERIS_TYPE":"0","NORAD_CAT_ID":"46718","PERIOD":"95.593","FILE":"3529274","TLE_LINE1":"1 46718U 20073BA  22216.84706795  .00000162  00000-0  29773-4 0  9998","ELEMENT_SET_NO":"999","RA_OF_ASC_NODE":"30.1817","PERIAPSIS":"546.229","COUNTRY_CODE":"US","REV_AT_EPOCH":"9904","OBJECT_NAME":"STARLINK-1821","RCS_SIZE":"LARGE","GP_ID":"209588390","OBJECT_ID":"2020-073BA","REF_FRAME":"TEME","OBJECT_TYPE":"PAYLOAD","BSTAR":"0.00002977300000","CLASSIFICATION_TYPE":"U","INCLINATION":"53.0576","ARG_OF_PERICENTER":"94.7826","MEAN_MOTION":"15.06392137","SEMIMAJOR_AXIS":"6925.373","TIME_SYSTEM":"UTC","EPOCH":"2022-08-04T20:19:46.670880","MEAN_ANOMALY":"265.3329"},{"NORAD_CAT_ID":"46719","CENTER_NAME":"EARTH","EPHEMERIS_TYPE":"0","APOAPSIS":"548.117","DECAY_DATE":null,"MEAN_MOTION_DOT":"0.00001080","MEAN_MOTION_DDOT":"0.0000000000000","LAUNCH_DATE":"2020-10-18","ECCENTRICITY":"0.00013030","SITE":"AFETR","MEAN_ELEMENT_THEORY":"SGP4","TLE_LINE2":"2 46719  53.0562 355.2727 0001303  82.9382 277.1756 15.06399679100012","OBJECT_NAME":"STARLINK-1822","PERIAPSIS":"546.312","REV_AT_EPOCH":"10001","COUNTRY_CODE":"US","RA_OF_ASC_NODE":"355.2727","ELEMENT_SET_NO":"999","FILE":"3529195","TLE_LINE1":"1 46719U 20073BB  22216.83096189  .00001080  00000-0  91407-4 0  9990","PERIOD":"95.592","CLASSIFICATION_TYPE":"U","INCLINATION":"53.0562","OBJECT_TYPE":"PAYLOAD","BSTAR":"0.00009140700000","REF_FRAME":"TEME","OBJECT_ID":"2020-073BB","RCS_SIZE":"LARGE","GP_ID":"209566416","MEAN_ANOMALY":"277.1756","EPOCH":"2022-08-04T19:56:35.107296","TIME_SYSTEM":"UTC","SEMIMAJOR_AXIS":"6925.350","MEAN_MOTION":"15.06399679","ARG_OF_PERICENTER":"82.9382"},{"ARG_OF_PERICENTER":"23.8280","MEAN_MOTION":"15.84592585","SEMIMAJOR_AXIS":"6695.609","TIME_SYSTEM":"UTC","EPOCH":"2022-08-04T07:29:03.430464","MEAN_ANOMALY":"336.3027","RCS_SIZE":"LARGE","GP_ID":"209559687","REF_FRAME":"TEME","OBJECT_ID":"2020-073BC","OBJECT_TYPE":"PAYLOAD","BSTAR":"0.00044793000000","INCLINATION":"53.0435","CLASSIFICATION_TYPE":"U","PERIOD":"90.875","FILE":"3529060","TLE_LINE1":"1 46720U 20073BC  22216.31184526  .00105972  00000-0  44793-3 0  9998","ELEMENT_SET_NO":"999","RA_OF_ASC_NODE":"240.0891","PERIAPSIS":"313.354","REV_AT_EPOCH":"10110","COUNTRY_CODE":"US","OBJECT_NAME":"STARLINK-1823","MEAN_ELEMENT_THEORY":"SGP4","TLE_LINE2":"2 46720  53.0435 240.0891 0006153  23.8280 336.3027 15.84592585101102","ECCENTRICITY":"0.00061530","LAUNCH_DATE":"2020-10-18","SITE":"AFETR","MEAN_MOTION_DDOT":"0.0000000000000","APOAPSIS":"321.594","DECAY_DATE":null,"MEAN_MOTION_DOT":"0.00105972","CENTER_NAME":"EARTH","EPHEMERIS_TYPE":"0","NORAD_CAT_ID":"46720"},{"RA_OF_ASC_NODE":"30.0911","OBJECT_NAME":"STARLINK-1825","REV_AT_EPOCH":"9904","COUNTRY_CODE":"US","PERIAPSIS":"546.229","TLE_LINE1":"1 46722U 20073BE  22216.87381498  .00000677  00000-0  64326-4 0  9999","FILE":"3529274","PERIOD":"95.593","ELEMENT_SET_NO":"999","EPHEMERIS_TYPE":"0","CENTER_NAME":"EARTH","MEAN_MOTION_DOT":"0.00000677","APOAPSIS":"548.258","DECAY_DATE":null,"NORAD_CAT_ID":"46722","SITE":"AFETR","ECCENTRICITY":"0.00014650","LAUNCH_DATE":"2020-10-18","TLE_LINE2":"2 46722  53.0568  30.0911 0001465  78.6310 281.4843 15.06390199 99040","MEAN_ELEMENT_THEORY":"SGP4","MEAN_MOTION_DDOT":"0.0000000000000","MEAN_ANOMALY":"281.4843","EPOCH":"2022-08-04T20:58:17.614272","SEMIMAJOR_AXIS":"6925.379","TIME_SYSTEM":"UTC","MEAN_MOTION":"15.06390199","ARG_OF_PERICENTER":"78.6310","OBJECT_ID":"2020-073BE","REF_FRAME":"TEME","INCLINATION":"53.0568","CLASSIFICATION_TYPE":"U","BSTAR":"0.00006432600000","OBJECT_TYPE":"PAYLOAD","GP_ID":"209588140","RCS_SIZE":"LARGE"},{"REF_FRAME":"TEME","OBJECT_ID":"2020-073BF","BSTAR":"0.00006545900000","OBJECT_TYPE":"PAYLOAD","CLASSIFICATION_TYPE":"U","INCLINATION":"53.0565","GP_ID":"209588890","RCS_SIZE":"LARGE","TIME_SYSTEM":"UTC","SEMIMAJOR_AXIS":"6925.342","MEAN_ANOMALY":"273.2327","EPOCH":"2022-08-04T19:59:54.071808","ARG_OF_PERICENTER":"86.8825","MEAN_MOTION":"15.06402132","MEAN_MOTION_DOT":"0.00000694","DECAY_DATE":null,"APOAPSIS":"548.195","EPHEMERIS_TYPE":"0","CENTER_NAME":"EARTH","NORAD_CAT_ID":"46723","TLE_LINE2":"2 46723  53.0565 350.2693 0001427  86.8825 273.2327 15.06402132 99601","MEAN_ELEMENT_THEORY":"SGP4","SITE":"AFETR","ECCENTRICITY":"0.00014270","LAUNCH_DATE":"2020-10-18","MEAN_MOTION_DDOT":"0.0000000000000","RA_OF_ASC_NODE":"350.2693","COUNTRY_CODE":"US","REV_AT_EPOCH":"9960","PERIAPSIS":"546.219","OBJECT_NAME":"STARLINK-1826","PERIOD":"95.592","TLE_LINE1":"1 46723U 20073BF  22216.83326472  .00000694  00000-0  65459-4 0  9994","FILE":"3529274","ELEMENT_SET_NO":"999"},{"MEAN_MOTION_DDOT":"0.0000000000000","MEAN_ELEMENT_THEORY":"SGP4","TLE_LINE2":"2 46725  53.0558  29.9469 0001439  91.9002 268.2152 15.06403702 99056","ECCENTRICITY":"0.00014390","LAUNCH_DATE":"2020-10-18","SITE":"AFETR","NORAD_CAT_ID":"46725","DECAY_DATE":null,"APOAPSIS":"548.199","MEAN_MOTION_DOT":"-0.00000973","CENTER_NAME":"EARTH","EPHEMERIS_TYPE":"0","ELEMENT_SET_NO":"999","PERIOD":"95.592","FILE":"3529274","TLE_LINE1":"1 46725U 20073BH  22216.90329944 -.00000973  00000-0 -46436-4 0  9997","PERIAPSIS":"546.206","COUNTRY_CODE":"US","REV_AT_EPOCH":"9905","OBJECT_NAME":"STARLINK-1828","RA_OF_ASC_NODE":"29.9469","RCS_SIZE":"LARGE","GP_ID":"209589142","OBJECT_TYPE":"PAYLOAD","BSTAR":"-0.00004643600000","CLASSIFICATION_TYPE":"U","INCLINATION":"53.0558","REF_FRAME":"TEME","OBJECT_ID":"2020-073BH","ARG_OF_PERICENTER":"91.9002","MEAN_MOTION":"15.06403702","SEMIMAJOR_AXIS":"6925.337","TIME_SYSTEM":"UTC","MEAN_ANOMALY":"268.2152","EPOCH":"2022-08-04T21:40:45.071616"}];
